SHIYAN-1 (SY-1)         
1 28220U 04012A   26068.73650539  .00016393  00000+0  54854-3 0  9991
2 28220  97.8764 140.5238 0005873  23.6952 336.4557 15.31043463195862
STARLINK-32890          
1 62896U 25024T   26068.11383367  .00045709  00000+0  16596-2 0  9991
2 62896  43.0053 328.1191 0002588 263.0102  97.0455 15.27592707 62182
